JCSAT-5A                
1 29045U 06010A   23113.53339274 -.00000331  00000+0  00000+0 0  9999
2 29045   0.0186 224.4133 0001622 183.9158 127.0583  1.00272778 62235
ASTRA 1KR               
1 29055U 06012A   23113.52728188  .00000116  00000+0  00000+0 0  9997
2 29055   0.0200 264.0851 0001412  56.8645  99.3766  1.00269592 34183
EROS B                  
1 29079U 06014A   23113.42782638  .00028372  00000+0  11664-2 0  9999
2 29079  97.3431 233.9841 0011808 251.6899 194.0711 15.24067346943584
CLOUDSAT                
1 29107U 06016A   23113.50218537  .00000769  00000+0  15633-3 0  9995
2 29107  98.3709  82.4033 0004298  67.8692 292.2966 14.63973892904379
CALIPSO                 
1 29108U 06016B   23113.50178046  .00002380  00000+0  46405-3 0  9998
2 29108  98.3711  81.8885 0001470  86.8455 273.2915 14.63946752904365
EWS-G1 (GOES 13)        
1 29155U 06018A   23113.53573686  .00000034  00000+0  00000+0 0  9995
2 29155   1.3945  91.9842 0001096 136.4171 237.4098  1.00267047 31844
EUTELSAT 113 WEST A     
1 29162U 06020A   23113.50095810 -.00000040  00000+0  00000+0 0  9999
2 29162   0.0148 285.0840 0003082 106.2329 247.3131  1.00271239 61933
RESURS-DK 1             
1 29228U 06021A   23113.20227131  .00003330  00000+0  24357-3 0  9992
2 29228  69.9372  59.0075 0007414 288.6819  71.3537 15.04605695928944
GALAXY 16 (G-16)        
1 29236U 06023A   23113.50374737 -.00000130  00000+0  00000+0 0  9992
2 29236   0.0101 242.2182 0002561 149.9192 261.4776  1.00270883 61432
GENESIS 1               
1 29252U 06029A   23113.09886718  .00010064  00000+0  39468-3 0  9997
2 29252  64.5183 131.3803 0031758 218.8594 141.0250 15.25759116926113
ARIRANG-2 (KOMPSAT-2)   
1 29268U 06031A   23113.50482731  .00000685  00000+0  14194-3 0  9997
2 29268  97.9127 335.0893 0016106 115.5454 244.7427 14.63075651893226
EUTELSAT HOTBIRD 13B    
1 29270U 06032A   23113.52597441  .00000083  00000+0  00000+0 0  9997
2 29270   0.0643  23.1958 0005258 353.4419  36.9928  1.00271318 35763
JCSAT-3A                
1 29272U 06033A   23113.54889874 -.00000348  00000+0  00000+0 0  9991
2 29272   0.0366  95.5163 0001812 302.5386 138.8758  1.00271969 61223
SYRACUSE 3B             
1 29273U 06033B   23113.42063306 -.00000047  00000+0  00000+0 0  9999
2 29273   0.0128 220.2250 0004517 174.7069 322.4863  1.00271507 61165
KOREASAT 5 (MUGUNGWHA 5)
1 29349U 06034A   23113.48104955 -.00000362  00000+0  00000+0 0  9996
2 29349   0.0345 115.7388 0001370 267.1313 114.6272  1.00272752 29783
HINODE (SOLAR-B)        
1 29479U 06041A   23113.51980443  .00001370  00000+0  26212-3 0  9992
2 29479  98.1092 129.6258 0017485 333.0203  27.0090 14.65359590886157
NAVSTAR 58 (USA 190)    
1 29486U 06042A   23113.30894394  .00000009  00000+0  00000+0 0  9998
2 29486  54.6879 196.9694 0104754  29.0038   3.2859  2.00501811121310
DIRECTV 9S              
1 29494U 06043A   23113.50331156 -.00000116  00000+0  00000+0 0  9992
2 29494   0.0104 201.2293 0002784 186.9274 263.1144  1.00272011 39841
OPTUS D1                
1 29495U 06043B   23113.57132828 -.00000111  00000+0  00000+0 0  9990
2 29495   0.0636  81.4177 0003399 298.8611 196.8295  1.00281977 60587
SHIJIAN-6 02A (SJ-6 02A)
1 29505U 06046A   23113.52010161  .00005895  00000+0  49920-3 0  9996
2 29505  97.7534 137.5067 0004481 152.6774 207.4659 14.98373980899085
SHIJIAN-6 02B (SJ-6 02B)
1 29506U 06046B   23113.49906564  .00003332  00000+0  30989-3 0  9993
2 29506  97.7745 137.1943 0000361 227.4268 132.6916 14.95006723898440
XM-4 (BLUES)            
1 29520U 06049A   23113.44393130 -.00000259  00000+0  00000+0 0  9999
2 29520   0.0495 307.4692 0002141 155.1088 229.4646  1.00275822 39939
DMSP 5D-3 F17 (USA 191) 
1 29522U 06050A   23113.47344766  .00000232  00000+0  14406-3 0  9996
2 29522  98.7567 127.5625 0011197  98.2357 262.0086 14.14236593849727
BADR-4                  
1 29526U 06051A   23113.56229987  .00000141  00000+0  00000+0 0  9998
2 29526   0.0422 350.4321 0004436  15.0985  74.2121  1.00273495 39737
NAVSTAR 59 (USA 192)    
1 29601U 06052A   23112.69990762 -.00000015  00000+0  00000+0 0  9993
2 29601  55.3362 259.7181 0086638  77.7612 283.1686  2.00569876120312
WILDBLUE-1              
1 29643U 06054A   23113.50130677 -.00000052  00000+0  00000+0 0  9994
2 29643   0.0141 260.4334 0001656 120.8115 259.3172  1.00271506 42254
AMC-18                  
1 29644U 06054B   23113.58105064 -.00000218  00000+0  00000+0 0  9999
2 29644   0.0520  70.0544 0002181 320.5718 306.8959  1.00270301 59998
LAPAN-TUBSAT            
1 29709U 07001A   23113.38641060  .00001467  00000+0  18703-3 0  9992
2 29709  98.0133  80.7545 0012246 335.1594  24.9024 14.83019638880434
CARTOSAT-2 (IRS-P7)     
1 29710U 07001B   23113.30738712  .00041425  00000+0  62613-3 0  9994
2 29710  97.8837 245.3758 0105946  40.4012 320.5044 15.48261731883806
THEMIS A                
1 30580U 07004A   23113.23967444 -.00000476  00000+0  55422-1 0  9992
2 30580  11.5840 309.3066 8340133 233.3130  18.3611  0.87833797 31153
SKYNET 5A               
1 30794U 07007B   23113.53562444 -.00000274  00000+0  00000+0 0  9992
2 30794   2.3531  87.1604 0003604 312.3107  99.8980  1.00271057 59162
THEMIS D                
1 30797U 07004D   23113.23732101 -.00000555  00000+0  00000+0 0  9990
2 30797   7.8360 296.6231 8292973 249.2886   9.7732  0.87773113 30952
THEMIS E                
1 30798U 07004E   23113.24150491 -.00000576  00000+0  00000+0 0  9991
2 30798   9.0096 314.9350 8294554 232.7280  24.4893  0.87831856 55803
ANIK F3                 
1 31102U 07009A   23113.59867392 -.00000004  00000+0  00000+0 0  9995
2 31102   0.0165 256.2975 0002300 121.9968 289.9074  1.00270597 35028
HAIYANG-1B              
1 31113U 07010A   23113.02332759  .00000190  00000+0  88652-4 0  9990
2 31113  98.3003 129.3497 0014087  20.6537 339.5213 14.30416028836026
SAUDISAT 3              
1 31118U 07012B   23113.27118657  .00000685  00000+0  12334-3 0  9995
2 31118  98.0093  58.5365 0013736 291.8867  68.0878 14.69639282858602
SAUDICOMSAT 7           
1 31119U 07012C   23113.32458000  .00001073  00000+0  21552-3 0  9995
2 31119  98.2249  62.0158 0058582 200.0352 159.8550 14.62672054853997
SAUDICOMSAT 6           
1 31121U 07012E   23113.27415016  .00001308  00000+0  27616-3 0  9990
2 31121  98.2621  57.1487 0074582 309.8286  49.6365 14.59407298852122
SAUDICOMSAT 5           
1 31124U 07012H   23113.09137142  .00001149  00000+0  22238-3 0  9992
2 31124  98.1947  63.0880 0051508 143.7361 216.7351 14.64435904854899
SAUDICOMSAT 3           
1 31125U 07012J   23113.30469008  .00001672  00000+0  30743-3 0  9997
2 31125  98.1611  64.4362 0043874  87.1882 273.4342 14.66352262855904
SAUDICOMSAT 4           
1 31127U 07012L   23113.09813227  .00001029  00000+0  21282-3 0  9995
2 31127  98.2465  60.2533 0065714 252.7293 106.6710 14.61169618853080
AGILE                   
1 31135U 07013A   23113.31171736  .00034443  00000+0  55964-3 0  9992
2 31135   2.4681 292.9725 0008020 327.5159  32.4402 15.50116231524870
ASTRA 1L                
1 31306U 07016A   23113.52728188  .00000116  00000+0  00000+0 0  9994
2 31306   0.0447 353.7501 0004521 345.7599  80.7988  1.00270320 33469
GALAXY 17 (G-17)        
1 31307U 07016B   23113.50531635 -.00000177  00000+0  00000+0 0  9990
2 31307   0.0546  86.0138 0001238   2.4888 213.6976  1.00271254 58268
YAOGAN 2                
1 31490U 07019A   23113.51691190  .00002012  00000+0  28409-3 0  9996
2 31490  98.2886 278.5725 0020213  19.0020 341.1939 14.78244650857333
GLOBALSTAR M065         
1 31571U 07020A   23113.21441903 -.00000104  00000+0 -31810-5 0  9994
2 31571  51.9895  98.3808 0000564 290.7505  82.4381 12.62271868734176
GLOBALSTAR M069         
1 31573U 07020C   23113.26108462 -.00000088  00000+0  90660-4 0  9998
2 31573  51.9963  54.6169 0000321  48.6921 116.7158 12.62274427735293
GLOBALSTAR M072         
1 31574U 07020D   23113.49054049 -.00000066  00000+0  20871-3 0  9997
2 31574  52.0064 149.4812 0000145  86.8181  60.6571 12.62271891733591
GLOBALSTAR M071         
1 31576U 07020F   23113.28482649 -.00000078  00000+0  14273-3 0  9999
2 31576  52.0077  59.3818 0000413 141.8574  10.3501 12.62273415396480
COSMO-SKYMED 1          
1 31598U 07023A   23113.47791697  .00001195  00000+0  15664-3 0  9998
2 31598  97.8868 297.7458 0001419  88.5798 271.5595 14.82161294858885
TERRASAR-X              
1 31698U 07026A   23112.44422123  .00002667  00000+0  13011-3 0  9992
2 31698  97.4441 120.6168 0001812  87.0336  50.4219 15.19157008879025
GENESIS 2               
1 31789U 07028A   23112.62083847  .00011340  00000+0  44514-3 0  9991
2 31789  64.4937 176.9840 0058764 269.4238  90.0154 15.24502707872933
COSMOS 2428             
1 31792U 07029A   23112.87248575 -.00000170  00000+0 -65855-4 0  9997
2 31792  70.9346 250.8688 0010423 309.0051  51.0141 14.12555830815626
ZHONGXING-6B            
1 31800U 07031A   23113.54645812 -.00000365  00000+0  00000+0 0  9991
2 31800   0.0151 247.0716 0003409 132.8535 143.6124  1.00274467 57937
DIRECTV 10              
1 31862U 07032A   23113.50296289 -.00000106  00000+0  00000+0 0  9999
2 31862   0.0092 293.6195 0000630 333.9392  21.9897  1.00270698 34050
SPACEWAY 3              
1 32018U 07036A   23113.50453187 -.00000154  00000+0  00000+0 0  9992
2 32018   1.0143  90.0430 0000206 284.8179 283.0986  1.00271934 35010
BSAT-3A                 
1 32019U 07036B   23113.54532498 -.00000354  00000+0  00000+0 0  9992
2 32019   0.0468 149.3965 0000549 113.1223 254.9653  1.00272182 57529
WORLDVIEW-1 (WV-1)      
1 32060U 07041A   23113.28248899  .00011867  00000+0  47947-3 0  9999
2 32060  97.3915 233.4982 0007172 127.1123 233.0772 15.24880211867593
OPTUS D2                
1 32252U 07044A   23113.34569594 -.00000114  00000+0  00000+0 0  9999
2 32252   0.0602  80.4079 0002815 307.1271 108.0314  1.00272997 57038
